NORAD_CAT_ID,OBJECT_NAME,OBJECT_TYPE,EPOCH,MEAN_MOTION,ECCENTRICITY,INCLINATION,RA_OF_ASC_NODE,ARG_OF_PERICENTER,MEAN_ANOMALY,BSTAR,MEAN_MOTION_DOT,MEAN_MOTION_DDOT,TLE_LINE0,TLE_LINE1,TLE_LINE2,SEMIMAJOR_AXIS,PERIOD,APOGEE,PERIGEE,DECAYED
49760.0,STARLINK-3199,PAYLOAD,2022-07-05 08:28:32,15.08830549,0.0002134,53.2209,49.5927,61.0924,299.0282,-1.959e-05,-6e-06,0.0,0 STARLINK-3199,1 49760U 21115AN  22186.35315167 -.00000600  00000-0 -19590-4 0  9992,2 49760  53.2209  49.5927 0002134  61.0924 299.0282 15.08830549 32883,6917.909000000002,95.438,541.251,538.298,0.0
49760.0,STARLINK-3199,PAYLOAD,2022-07-05 21:11:37,15.08830742,0.0002056,53.2209,47.214,60.9763,299.1435,4.5433e-05,4.35e-06,0.0,0 STARLINK-3199,1 49760U 21115AN  22186.88307093  .00000435  00000-0  45433-4 0  9998,2 49760  53.2209  47.2140 0002056  60.9763 299.1435 15.08830742 34076,6917.909000000002,95.438,541.196,538.351,0.0
49760.0,STARLINK-3199,PAYLOAD,2022-07-06 13:05:28,15.08833629,0.0001938,53.221,44.2403,62.3163,297.8026,0.00015483,2.176e-05,0.0,0 STARLINK-3199,1 49760U 21115AN  22187.54546978  .00002176  00000-0  15483-3 0  9994,2 49760  53.2210  44.2403 0001938  62.3163 297.8026 15.08833629 34174,6917.9,95.438,541.106,538.424,0.0
49760.0,STARLINK-3199,PAYLOAD,2022-07-06 21:02:24,15.08837127,0.0001964,53.221,42.7538,62.2442,297.8749,0.00020039,2.902e-05,0.0,0 STARLINK-3199,1 49760U 21115AN  22187.87666873  .00002902  00000-0  20039-3 0  9997,2 49760  53.2210  42.7538 0001964  62.2442 297.8749 15.08837127 33116,6917.889,95.438,541.113,538.395,0.0
49760.0,STARLINK-3199,PAYLOAD,2022-07-07 19:17:48,15.08842754,0.0001993,53.2212,38.5911,63.1061,297.0135,0.0001218,1.651e-05,0.0,0 STARLINK-3199,1 49760U 21115AN  22188.80402900  .00001651  00000-0  12180-3 0  9998,2 49760  53.2212  38.5911 0001993  63.1061 297.0135 15.08842754 34366,6917.871999999999,95.437,541.116,538.3580000000002,0.0
49760.0,STARLINK-3199,PAYLOAD,2022-07-08 06:25:29,15.08847382,0.0001992,53.2208,36.5096,62.5035,297.616,0.00011142,1.486e-05,0.0,0 STARLINK-3199,1 49760U 21115AN  22189.26770465  .00001486  00000-0  11142-3 0  9996,2 49760  53.2208  36.5096 0001992  62.5035 297.6160 15.08847382 33327,6917.858,95.437,541.101,538.345,0.0
49760.0,STARLINK-3199,PAYLOAD,2022-07-08 20:43:56,15.08858201,0.0001919,53.2203,33.8328,60.668,299.4503,0.00014757,2.062e-05,0.0,0 STARLINK-3199,1 49760U 21115AN  22189.86385405  .00002062  00000-0  14757-3 0  9994,2 49760  53.2203  33.8328 0001919  60.6680 299.4503 15.08858201 34520,6917.825,95.436,541.0169999999998,538.362,0.0
49760.0,STARLINK-3199,PAYLOAD,2022-07-09 12:37:48,15.08847391,0.0001968,53.2207,30.8625,67.2415,292.8785,6.0476e-05,6.75e-06,0.0,0 STARLINK-3199,1 49760U 21115AN  22190.52625458  .00000675  00000-0  60476-4 0  9992,2 49760  53.2207  30.8625 0001968  67.2415 292.8785 15.08847391 33519,6917.858,95.437,541.0840000000002,538.361,0.0
49760.0,STARLINK-3199,PAYLOAD,2022-07-09 14:13:11,15.08840954,0.0001885,53.2198,30.5631,65.0576,295.0612,-5.377e-05,-1.144e-05,0.0,0 STARLINK-3199,1 49760U 21115AN  22190.59249756 -.00001144  00000-0 -53770-4 0  9995,2 49760  53.2198  30.5631 0001885  65.0576 295.0612 15.08840954 34630,6917.877,95.437,541.0459999999998,538.438,0.0
49760.0,STARLINK-3199,PAYLOAD,2022-07-09 23:45:31,15.08836209,0.0002133,53.2211,28.7773,68.7633,291.3587,-6.961799999999997e-06,-3.99e-06,0.0,0 STARLINK-3199,1 49760U 21115AN  22190.98994578 -.00000399  00000-0 -69618-5 0  9997,2 49760  53.2211  28.7773 0002133  68.7633 291.3587 15.08836209 34697,6917.892,95.438,541.2330000000002,538.281,0.0
49760.0,STARLINK-3199,PAYLOAD,2022-07-10 12:28:38,15.08811544,0.000109,53.2195,26.3982,46.4951,313.6132,-0.00026523,-4.503e-05,0.0,0 STARLINK-3199,1 49760U 21115AN  22191.51989457 -.00004503  00000-0 -26523-3 0  9994,2 49760  53.2195  26.3982 0001090  46.4951 313.6132 15.08811544 33666,6917.967,95.439,540.586,539.078,0.0
49760.0,STARLINK-3199,PAYLOAD,2022-07-10 17:14:47,15.08829373,0.0001786999999999,53.2207,25.5082,62.6444,297.473,-0.00013696,-2.467e-05,0.0,0 STARLINK-3199,1 49760U 21115AN  22191.71860346 -.00002467  00000-0 -13696-3 0  9995,2 49760  53.2207  25.5082 0001787  62.6444 297.4730 15.08829373 34801,6917.913000000001,95.438,541.014,538.5419999999998,0.0
49760.0,STARLINK-3199,PAYLOAD,2022-07-11 13:54:48,15.08829523,0.0001668,53.2201,21.6422,58.8515,301.2641,0.00011591,1.557e-05,0.0,0 STARLINK-3199,1 49760U 21115AN  22192.57972529  .00001557  00000-0  11591-3 0  9996,2 49760  53.2201  21.6422 0001668  58.8515 301.2641 15.08829523 33827,6917.9119999999975,95.438,540.931,538.624,0.0
49760.0,STARLINK-3199,PAYLOAD,2022-07-11 20:16:21,15.08830632,0.0001767,53.2192,20.4531,64.1373,295.9801,0.00031797,4.775e-05,0.0,0 STARLINK-3199,1 49760U 21115AN  22192.84469030  .00004775  00000-0  31797-3 0  9999,2 49760  53.2192  20.4531 0001767  64.1373 295.9801 15.08830632 34973,6917.909000000002,95.438,540.996,538.552,0.0
49760.0,STARLINK-3199,PAYLOAD,2022-07-12 12:10:12,15.08848095,0.0001605,53.2187,17.4794,57.185,302.9296,0.00078968,0.00012305,0.0,0 STARLINK-3199,1 49760U 21115AN  22193.50709132  .00012305  00000-0  78968-3 0  9992,2 49760  53.2187  17.4794 0001605  57.1850 302.9296 15.08848095 33964,6917.856,95.437,540.831,538.61,0.0
49760.0,STARLINK-3199,PAYLOAD,2022-07-12 18:31:44,15.08866493,0.0001658,53.2182,16.2899,57.6967,302.4185,0.00093368,0.00014613,0.0,0 STARLINK-3199,1 49760U 21115AN  22193.77204412  .00014613  00000-0  93368-3 0  9997,2 49760  53.2182  16.2899 0001658  57.6967 302.4185 15.08866493 35117,6917.799,95.436,540.811,538.5169999999998,0.0
49760.0,STARLINK-3199,PAYLOAD,2022-07-13 12:00:58,15.08867158,0.0001744,53.2176,13.0189,57.6912,302.4249,0.00036526,5.534e-05,0.0,0 STARLINK-3199,1 49760U 21115AN  22194.50067204  .00005534  00000-0  36526-3 0  9990,2 49760  53.2176  13.0189 0001744  57.6912 302.4249 15.08867158 35225,6917.797,95.436,540.869,538.456,0.0
49760.0,STARLINK-3199,PAYLOAD,2022-07-13 18:22:30,15.08857327,0.0001575999999999,53.2187,11.8288,51.905,308.2084,5.2177e-05,5.43e-06,0.0,0 STARLINK-3199,1 49760U 21115AN  22194.76563103  .00000543  00000-0  52177-4 0  9993,2 49760  53.2187  11.8288 0001576  51.9050 308.2084 15.08857327 35268,6917.8269999999975,95.436,540.783,538.602,0.0
49760.0,STARLINK-3199,PAYLOAD,2022-07-14 11:51:45,15.08836721,0.0001631,53.2188,8.5576,60.2704,299.8451,-0.00029889,-5.041e-05,0.0,0 STARLINK-3199,1 49760U 21115AN  22195.49427395 -.00005041  00000-0 -29889-3 0  9999,2 49760  53.2188   8.5576 0001631  60.2704 299.8451 15.08836721 35373,6917.89,95.438,540.884,538.627,0.0
49760.0,STARLINK-3199,PAYLOAD,2022-07-14 16:37:54,15.08841923,0.0001587,53.2184,7.6657,63.3662,296.7493,-0.00013985,-2.513e-05,0.0,0 STARLINK-3199,1 49760U 21115AN  22195.69299389 -.00002513  00000-0 -13985-3 0  9992,2 49760  53.2184   7.6657 0001587  63.3662 296.7493 15.08841923 34298,6917.875,95.437,540.837,538.6419999999998,0.0
49760.0,STARLINK-3199,PAYLOAD,2022-07-15 11:42:32,15.08844175,0.0001506999999999,53.2189,4.0977,64.7653,295.3496,4.9728e-05,5.04e-06,0.0,0 STARLINK-3199,1 49760U 21115AN  22196.48787305  .00000504  00000-0  49728-4 0  9991,2 49760  53.2189   4.0977 0001507  64.7653 295.3496 15.08844175 35523,6917.868,95.437,540.775,538.69,0.0
49760.0,STARLINK-3199,PAYLOAD,2022-07-15 18:04:04,15.08841626,0.000157,53.2188,2.9092,55.0065,305.1075,2.9052e-05,1.74e-06,0.0,0 STARLINK-3199,1 49760U 21115AN  22196.75283481  .00000174  00000-0  29052-4 0  9998,2 49760  53.2188   2.9092 0001570  55.0065 305.1075 15.08841626 34459,6917.875,95.437,540.827,538.654,0.0
49760.0,STARLINK-3199,PAYLOAD,2022-07-16 11:33:19,15.08842947,0.0001665,53.2216,359.6407,65.8846,294.232,0.0001426,1.982e-05,0.0,0 STARLINK-3199,1 49760U 21115AN  22197.48147526  .00001982  00000-0  14260-3 0  9990,2 49760  53.2216 359.6407 0001665  65.8846 294.2320 15.08842947 34564,6917.871,95.437,540.888,538.585,0.0
49760.0,STARLINK-3199,PAYLOAD,2022-07-16 19:30:15,15.08843749,0.0001646,53.2186,358.1509,54.0478,306.0667,0.00012368,1.681e-05,0.0,0 STARLINK-3199,1 49760U 21115AN  22197.81267454  .00001681  00000-0  12368-3 0  9993,2 49760  53.2186 358.1509 0001646  54.0478 306.0667 15.08843749 35723,6917.869000000002,95.437,540.873,538.595,0.0
49760.0,STARLINK-3199,PAYLOAD,2022-07-16 21:05:38,15.08843837,0.0001643,53.2187,357.8536,54.806,305.3086,0.00011929,1.611e-05,0.0,0 STARLINK-3199,1 49760U 21115AN  22197.87891419  .00001611  00000-0  11929-3 0  9998,2 49760  53.2187 357.8536 0001643  54.8060 305.3086 15.08843837 34625,6917.869000000002,95.437,540.87,538.597,0.0
49760.0,STARLINK-3199,PAYLOAD,2022-07-17 11:24:06,15.08835217,0.0001661,53.2191,355.1772,59.8952,300.2205,-7.4236e-06,-4.06e-06,0.0,0 STARLINK-3199,1 49760U 21115AN  22198.47507734 -.00000406  00000-0 -74236-5 0  9994,2 49760  53.2191 355.1772 0001661  59.8952 300.2205 15.08835217 35821,6917.895,95.438,540.909,538.611,0.0
49760.0,STARLINK-3199,PAYLOAD,2022-07-17 19:21:01,15.08845784,0.0001608,53.2189,353.6901,53.0381,307.0758,0.00013056,1.791e-05,0.0,0 STARLINK-3199,1 49760U 21115AN  22198.80627207  .00001791  00000-0  13056-3 0  9996,2 49760  53.2189 353.6901 0001608  53.0381 307.0758 15.08845784 35871,6917.863,95.437,540.84,538.615,0.0
49760.0,STARLINK-3199,PAYLOAD,2022-07-18 11:14:53,15.08839132,0.0001576999999999,53.2186,350.7169,54.339,305.7749,5.7121e-05,6.21e-06,0.0,0 STARLINK-3199,1 49760U 21115AN  22199.46867525  .00000621  00000-0  57121-4 0  9991,2 49760  53.2186 350.7169 0001577  54.3390 305.7749 15.08839132 35977,6917.8830000000025,95.438,540.839,538.6569999999998,0.0
49760.0,STARLINK-3199,PAYLOAD,2022-07-18 17:36:25,15.08844521,0.0001551999999999,53.2193,349.528,54.3488,305.7649,0.00013572,1.873e-05,0.0,0 STARLINK-3199,1 49760U 21115AN  22199.73363274  .00001873  00000-0  13572-3 0  9994,2 49760  53.2193 349.5280 0001552  54.3488 305.7649 15.08844521 34905,6917.8669999999975,95.437,540.805,538.658,0.0
